OBJECT_NAME,OBJECT_ID,EPOCH,MEAN_MOTION,ECCENTRICITY,INCLINATION,RA_OF_ASC_NODE,ARG_OF_PERICENTER,MEAN_ANOMALY,EPHEMERIS_TYPE,CLASSIFICATION_TYPE,NORAD_CAT_ID,ELEMENT_SET_NO,REV_AT_EPOCH,BSTAR,MEAN_MOTION_DOT,MEAN_MOTION_DDOT
NORBI,2020-068J,2026-05-09T19:33:00.081792,15.46837024,.0007917,97.8657,142.4478,52.3686,307.8279,0,U,46494,999,31027,.33669E-3,.16835E-3,0
SALSAT,2020-068K,2026-05-09T17:49:07.800096,15.29233018,.0011631,97.8864,130.4857,80.5049,279.7504,0,U,46495,999,30948,.21853E-3,.6126E-4,0
ICEYE-X6,2020-068M,2026-05-09T21:07:26.775264,15.04315657,.0006304,98.0967,121.7308,207.1197,152.9699,0,U,46497,999,30747,.93882E-4,.1241E-4,0
NETSAT-4,2020-068U,2026-05-09T13:02:11.931360,15.42590515,.000768,97.8626,134.7201,99.2207,260.9908,0,U,46504,999,30981,.29665E-3,.12819E-3,0
NETSAT-3,2020-068V,2026-05-09T12:27:31.053024,15.41358441,.000745,97.8673,132.9615,111.9555,248.2483,0,U,46505,999,30972,.31904E-3,.13237E-3,0
NETSAT-1,2020-068W,2026-05-09T17:14:02.230368,15.33710556,.0006587,97.8759,127.9493,130.4987,229.6829,0,U,46506,999,30940,.28002E-3,.9047E-4,0
NETSAT-2,2020-068X,2026-05-09T18:16:25.741056,15.44381984,.0006116,97.8641,134.7212,119.0690,241.1170,0,U,46507,999,30980,.35131E-3,.16146E-3,0
TIANQI-6,2020-076D,2026-05-09T18:44:30.641280,15.06935103,.0010299,34.9994,284.1291,194.7577,165.2833,0,U,46810,999,30278,.18123E-3,.2739E-4,0
KSM1-C,2020-081B,2026-05-09T19:52:27.767424,15.26123028,.0002938,36.8941,295.6398,254.8892,105.1532,0,U,46906,999,30330,.30739E-3,.8032E-4,0
KSM1-D,2020-081C,2026-05-09T20:17:45.521664,15.24196984,.0005097,36.8970,303.8171,289.8788,70.1411,0,U,46907,999,30324,.25804E-3,.6343E-4,0
KSM1-A,2020-081H,2026-05-09T19:29:27.091968,15.25381683,.0003253,36.8971,297.8449,342.2465,17.8170,0,U,46912,999,30331,.27957E-3,.7131E-4,0
R2,2020-081J,2026-05-09T18:07:35.516352,15.24890113,.000796,36.8982,297.9872,311.9292,48.0777,0,U,46913,999,30611,.23036E-3,.5774E-4,0
KSM1-B,2020-081K,2026-05-09T20:15:16.314048,15.23997470,.0006583,36.9026,304.3423,309.9849,50.0321,0,U,46914,999,30633,.26237E-3,.6414E-4,0
GONETS-M 20,2020-091A,2026-05-09T20:24:48.780576,12.42892366,.0019968,82.5042,326.2746,264.3320,95.5483,0,U,47227,999,24631,-.37771E-3,-.43E-6,0
GONETS-M 21,2020-091B,2026-05-09T19:46:53.365728,12.42884166,.001382,82.4965,325.0214,279.6776,80.2743,0,U,47228,999,24630,-.51599E-3,-.62E-6,0
GONETS-M 22,2020-091C,2026-05-09T21:04:17.301792,12.42890666,.0020838,82.5024,325.8688,259.2775,100.5958,0,U,47229,999,24626,.10169E-3,.24E-6,0
CUBEL,2021-006AM,2026-05-09T13:59:40.176960,15.40395774,.0005242,97.2365,180.5537,323.7464,36.3426,0,U,47448,999,29381,.16215E-3,.6473E-4,0
ARKTIKA-M 1,2021-016A,2026-05-08T02:50:37.974048,2.00605471,.72733772,63.2274,63.4261,269.7438,14.8678,0,U,47719,999,3798,0,-.109E-5,0
STARLINK-2342,2021-021Z,2026-05-09T20:13:29.477856,15.54069575,.000362,53.1579,335.6151,190.2791,169.8146,0,U,47883,999,28590,.51864E-3,.33886E-3,0
GRUS-1B,2021-022C,2026-05-09T20:36:58.274784,14.98891844,.0017352,97.5427,14.3099,87.6908,272.6301,0,U,47934,999,28015,.19439E-4,.178E-5,0
UNISAT-7,2021-022P,2026-05-09T16:34:46.371072,15.39457199,.00084,97.3916,34.2395,199.5843,160.5081,0,U,47945,999,28393,.26411E-3,.10281E-3,0
GLOBAL-9,2021-023G,2026-05-09T08:24:28.752192,15.45068116,.0002307,44.9807,108.5448,67.4636,292.6497,0,U,47971,999,28893,.32491E-3,.15371E-3,0
AII-BRAVO,2021-034C,2026-05-09T16:22:00.060960,15.03183717,.0007114,97.5658,185.4737,53.3974,306.7905,0,U,48270,999,27383,.21492E-3,.2847E-4,0
TYVAK-182A,2021-034D,2026-05-09T17:25:48.681696,15.05794689,.0007311,97.5735,189.3174,102.0134,258.1912,0,U,48271,999,27404,.25572E-3,.3647E-4,0
CSS (TIANHE),2021-035A,2026-05-09T15:24:51.892128,15.62092922,.0004689,41.4637,196.4787,275.1899,84.8405,0,U,48274,999,28714,.20263E-3,.17976E-3,0
TYVAK-0130,2021-041BF,2026-05-09T12:02:35.118240,15.27035293,.0011081,52.9925,205.6664,52.9396,307.2613,0,U,48606,999,27447,.19555E-3,.4916E-4,0
HAIYANG-2D,2021-043A,2026-05-09T21:41:41.661024,13.83372248,.0011401,65.9999,40.0121,273.7445,86.2319,0,U,48621,999,25125,-.2E-4,-.103E-5,0
