NORBI                   
1 46494U 20068J   26129.81458428  .00016835  00000+0  33669-3 0  9995
2 46494  97.8657 142.4478 0007917  52.3686 307.8279 15.46837024310274
SALSAT                  
1 46495U 20068K   26129.74245139  .00006126  00000+0  21853-3 0  9995
2 46495  97.8864 130.4857 0011631  80.5049 279.7504 15.29233018309480
ICEYE-X6                
1 46497U 20068M   26129.88017101  .00001241  00000+0  93882-4 0  9993
2 46497  98.0967 121.7308 0006304 207.1197 152.9699 15.04315657307472
NETSAT-4                
1 46504U 20068U   26129.54319365  .00012819  00000+0  29665-3 0  9992
2 46504  97.8626 134.7201 0007680  99.2207 260.9908 15.42590515309819
NETSAT-3                
1 46505U 20068V   26129.51910941  .00013237  00000+0  31904-3 0  9991
2 46505  97.8673 132.9615 0007450 111.9555 248.2483 15.41358441309720
NETSAT-1                
1 46506U 20068W   26129.71808137  .00009047  00000+0  28002-3 0  9996
2 46506  97.8759 127.9493 0006587 130.4987 229.6829 15.33710556309401
NETSAT-2                
1 46507U 20068X   26129.76140904  .00016146  00000+0  35131-3 0  9992
2 46507  97.8641 134.7212 0006116 119.0690 241.1170 15.44381984309802
TIANQI-6                
1 46810U 20076D   26129.78091020  .00002739  00000+0  18123-3 0  9999
2 46810  34.9994 284.1291 0010299 194.7577 165.2833 15.06935103302788
KSM1-C                  
1 46906U 20081B   26129.82809916  .00008032  00000+0  30739-3 0  9996
2 46906  36.8941 295.6398 0002938 254.8892 105.1532 15.26123028303306
KSM1-D                  
1 46907U 20081C   26129.84566576  .00006343  00000+0  25804-3 0  9991
2 46907  36.8970 303.8171 0005097 289.8788  70.1411 15.24196984303240
KSM1-A                  
1 46912U 20081H   26129.81211912  .00007131  00000+0  27957-3 0  9992
2 46912  36.8971 297.8449 0003253 342.2465  17.8170 15.25381683303316
R2                      
1 46913U 20081J   26129.75527218  .00005774  00000+0  23036-3 0  9990
2 46913  36.8982 297.9872 0007960 311.9292  48.0777 15.24890113306112
KSM1-B                  
1 46914U 20081K   26129.84393882  .00006414  00000+0  26237-3 0  9997
2 46914  36.9026 304.3423 0006583 309.9849  50.0321 15.23997470306338
GONETS-M 20             
1 47227U 20091A   26129.85056459 -.00000043  00000+0 -37771-3 0  9992
2 47227  82.5042 326.2746 0019968 264.3320  95.5483 12.42892366246311
GONETS-M 21             
1 47228U 20091B   26129.82422877 -.00000062  00000+0 -51599-3 0  9996
2 47228  82.4965 325.0214 0013820 279.6776  80.2743 12.42884166246305
GONETS-M 22             
1 47229U 20091C   26129.87797803  .00000024  00000+0  10169-3 0  9990
2 47229  82.5024 325.8688 0020838 259.2775 100.5958 12.42890666246267
CUBEL                   
1 47448U 21006AM  26129.58310390  .00006473  00000+0  16215-3 0  9992
2 47448  97.2365 180.5537 0005242 323.7464  36.3426 15.40395774293814
ARKTIKA-M 1             
1 47719U 21016A   26128.11849507 -.00000109  00000+0  00000+0 0  9991
2 47719  63.2274  63.4261 7273377 269.7438  14.8678  2.00605471 37987
STARLINK-2342           
1 47883U 21021Z   26129.84270229  .00033886  00000+0  51864-3 0  9994
2 47883  53.1579 335.6151 0003620 190.2791 169.8146 15.54069575285902
GRUS-1B                 
1 47934U 21022C   26129.85900781  .00000178  00000+0  19439-4 0  9997
2 47934  97.5427  14.3099 0017352  87.6908 272.6301 14.98891844280158
UNISAT-7                
1 47945U 21022P   26129.69081448  .00010281  00000+0  26411-3 0  9994
2 47945  97.3916  34.2395 0008400 199.5843 160.5081 15.39457199283932
GLOBAL-9                
1 47971U 21023G   26129.35033278  .00015371  00000+0  32491-3 0  9995
2 47971  44.9807 108.5448 0002307  67.4636 292.6497 15.45068116288932
AII-BRAVO               
1 48270U 21034C   26129.68194515  .00002847  00000+0  21492-3 0  9991
2 48270  97.5658 185.4737 0007114  53.3974 306.7905 15.03183717273831
TYVAK-182A              
1 48271U 21034D   26129.72625789  .00003647  00000+0  25572-3 0  9991
2 48271  97.5735 189.3174 0007311 102.0134 258.1912 15.05794689274045
CSS (TIANHE)            
1 48274U 21035A   26129.64226727  .00017976  00000+0  20263-3 0  9997
2 48274  41.4637 196.4787 0004689 275.1899  84.8405 15.62092922287141
TYVAK-0130              
1 48606U 21041BF  26129.50179535  .00004916  00000+0  19555-3 0  9994
2 48606  52.9925 205.6664 0011081  52.9396 307.2613 15.27035293274475
HAIYANG-2D              
1 48621U 21043A   26129.90395441 -.00000103  00000+0 -20000-4 0  9997
2 48621  65.9999  40.0121 0011401 273.7445  86.2319 13.83372248251252
